NORAD_CAT_ID,OBJECT_NAME,OBJECT_TYPE,EPOCH,MEAN_MOTION,ECCENTRICITY,INCLINATION,RA_OF_ASC_NODE,ARG_OF_PERICENTER,MEAN_ANOMALY,BSTAR,MEAN_MOTION_DOT,MEAN_MOTION_DDOT,TLE_LINE0,TLE_LINE1,TLE_LINE2,SEMIMAJOR_AXIS,PERIOD,APOGEE,PERIGEE,DECAYED
54204.0,STARLINK-5241,PAYLOAD,2023-10-08 16:58:33,15.08848009,0.0001477,53.2183,357.5525,99.084,261.0319,0.0011315,0.0001777,0.0,0 STARLINK-5241,1 54204U 22141AZ  23281.70733634  .00017770  00000-0  11315-2 0  9999,2 54204  53.2183 357.5525 0001477  99.0840 261.0319 15.08848009 52934,6917.856,95.437,540.743,538.699,0.0
54204.0,STARLINK-5241,PAYLOAD,2023-10-08 21:44:44,15.08824874,0.0002795,53.2184,356.6541,95.2872,264.844,-0.00010975,-2.034e-05,0.0,0 STARLINK-5241,1 54204U 22141AZ  23281.90606572 -.00002034  00000-0 -10975-3 0  9992,2 54204  53.2184 356.6541 0002795  95.2872 264.8440 15.08824874 52963,6917.927,95.439,541.725,537.858,0.0
54204.0,STARLINK-5241,PAYLOAD,2023-10-09 08:52:25,15.08843983,0.0001404,53.2195,354.5775,89.8607,270.2546,0.00056916,8.783e-05,0.0,0 STARLINK-5241,1 54204U 22141AZ  23282.36974062  .00008783  00000-0  56916-3 0  9995,2 54204  53.2195 354.5775 0001404  89.8607 270.2546 15.08843983 53031,6917.868,95.437,540.704,538.762,0.0
54204.0,STARLINK-5241,PAYLOAD,2023-10-09 12:03:11,15.08855121,0.0001392,53.2186,353.9846,92.0944,268.0208,0.00091405,0.00014295,0.0,0 STARLINK-5241,1 54204U 22141AZ  23282.50221816  .00014295  00000-0  91405-3 0  9990,2 54204  53.2186 353.9846 0001392  92.0944 268.0208 15.08855121 52822,6917.834,95.437,540.662,538.736,0.0
54204.0,STARLINK-5241,PAYLOAD,2023-10-09 15:13:57,15.08865764,0.0001501,53.2185,353.3892,95.5715,264.5448,0.0012589,0.00019818,0.0,0 STARLINK-5241,1 54204U 22141AZ  23282.63469548  .00019818  00000-0  12589-2 0  9991,2 54204  53.2185 353.3892 0001501  95.5715 264.5448 15.08865764 53071,6917.802,95.436,540.705,538.628,0.0
54204.0,STARLINK-5241,PAYLOAD,2023-10-10 10:18:35,15.08861953,0.0001567,53.2177,349.8217,109.6627,250.4535,0.0016558,0.00026178,0.0,0 STARLINK-5241,1 54204U 22141AZ  23283.42957515  .00026178  00000-0  16558-2 0  9992,2 54204  53.2177 349.8217 0001567 109.6627 250.4535 15.08861953 53194,6917.813,95.436,540.762,538.594,0.0
54204.0,STARLINK-5241,PAYLOAD,2023-10-10 13:29:21,15.0886734,0.0001516,53.2175,349.2263,106.9186,253.1973,0.001784,0.0002824,0.0,0 STARLINK-5241,1 54204U 22141AZ  23283.56205326  .00028240  00000-0  17840-2 0  9990,2 54204  53.2175 349.2263 0001516 106.9186 253.1973 15.08867340 52989,6917.797,95.436,540.711,538.613,0.0
54204.0,STARLINK-5241,PAYLOAD,2023-10-10 15:04:44,15.0886916,0.0001467,53.2174,348.9272,78.1772,281.9385,0.0017476,0.00027657,0.0,0 STARLINK-5241,1 54204U 22141AZ  23283.62829349  .00027657  00000-0  17476-2 0  9990,2 54204  53.2174 348.9272 0001467  78.1772 281.9385 15.08869160 52999,6917.791,95.436,540.671,538.641,0.0
54204.0,STARLINK-5241,PAYLOAD,2023-10-11 10:09:22,15.08835571,0.0001497,53.2173,345.3616,106.2025,253.9132,0.0012941,0.00020365,0.0,0 STARLINK-5241,1 54204U 22141AZ  23284.42318281  .00020365  00000-0  12941-2 0  9998,2 54204  53.2173 345.3616 0001497 106.2025 253.9132 15.08835571 53346,6917.894,95.438,540.795,538.723,0.0
54204.0,STARLINK-5241,PAYLOAD,2023-10-11 13:20:09,15.08838586,0.0001589,53.2174,344.7664,110.505,249.6112,0.0012746,0.00020055,0.0,0 STARLINK-5241,1 54204U 22141AZ  23284.55566314  .00020055  00000-0  12746-2 0  9993,2 54204  53.2174 344.7664 0001589 110.5050 249.6112 15.08838586 53137,6917.885,95.438,540.849,538.65,0.0
54204.0,STARLINK-5241,PAYLOAD,2023-10-12 03:38:37,15.08839912,0.0001756,53.2173,342.0899,113.6931,246.4246,0.00063627,9.853e-05,0.0,0 STARLINK-5241,1 54204U 22141AZ  23285.15182564  .00009853  00000-0  63627-3 0  9999,2 54204  53.2173 342.0899 0001756 113.6931 246.4246 15.08839912 53457,6917.881,95.438,540.96,538.531,0.0
54204.0,STARLINK-5241,PAYLOAD,2023-10-12 11:35:33,15.08844586,0.0001496,53.2167,340.6024,89.8018,270.3146,0.00060449,9.347e-05,0.0,0 STARLINK-5241,1 54204U 22141AZ  23285.48302648  .00009347  00000-0  60449-3 0  9999,2 54204  53.2167 340.6024 0001496  89.8018 270.3146 15.08844586 53273,6917.866,95.437,540.766,538.696,0.0
54204.0,STARLINK-5241,PAYLOAD,2023-10-12 16:21:42,15.08846733,0.0001635,53.2169,339.7105,93.0273,267.0906,0.00047623,7.301e-05,0.0,0 STARLINK-5241,1 54204U 22141AZ  23285.68174571  .00007301  00000-0  47623-3 0  9990,2 54204  53.2169 339.7105 0001635  93.0273 267.0906 15.08846733 53306,6917.86,95.437,540.856,538.594,0.0
54204.0,STARLINK-5241,PAYLOAD,2023-10-13 09:50:57,15.08844573,0.0001697,53.2169,336.4378,107.9182,252.1995,0.00027185,4.042e-05,0.0,0 STARLINK-5241,1 54204U 22141AZ  23286.41038509  .00004042  00000-0  27185-3 0  9992,2 54204  53.2169 336.4378 0001697 107.9182 252.1995 15.08844573 53644,6917.866,95.437,540.905,538.557,0.0
54204.0,STARLINK-5241,PAYLOAD,2023-10-13 20:58:39,15.08848034,0.0001643,53.2165,334.3557,101.6982,258.4194,0.00031723,4.765e-05,0.0,0 STARLINK-5241,1 54204U 22141AZ  23286.87406393  .00004765  00000-0  31723-3 0  9997,2 54204  53.2165 334.3557 0001643 101.6982 258.4194 15.08848034 53484,6917.856,95.437,540.857,538.584,0.0
54204.0,STARLINK-5241,PAYLOAD,2023-10-14 12:52:29,15.08857964,0.0001575,53.2163,331.3835,83.8245,276.2927,0.00034274,5.174e-05,0.0,0 STARLINK-5241,1 54204U 22141AZ  23287.53645705  .00005174  00000-0  34274-3 0  9992,2 54204  53.2163 331.3835 0001575  83.8245 276.2927 15.08857964 53580,6917.825,95.436,540.78,538.601,0.0
54204.0,STARLINK-5241,PAYLOAD,2023-10-15 03:10:59,15.08822596,6.91e-05,53.2175,328.7059,50.5188,309.5865,-0.00021024,-3.63e-05,0.0,0 STARLINK-5241,1 54204U 22141AZ  23288.13263159 -.00003630  00000-0 -21024-3 0  9994,2 54204  53.2175 328.7059 0000691  50.5188 309.5865 15.08822596 53906,6917.934,95.439,540.277,539.321,0.0
54204.0,STARLINK-5241,PAYLOAD,2023-10-15 09:32:31,15.08831852,0.0001531,53.2168,327.5202,90.7285,269.3883,-0.00014166,-2.541e-05,0.0,0 STARLINK-5241,1 54204U 22141AZ  23288.39758941 -.00002541  00000-0 -14166-3 0  9999,2 54204  53.2168 327.5202 0001531  90.7285 269.3883 15.08831852 53945,6917.905,95.438,540.829,538.711,0.0
54204.0,STARLINK-5241,PAYLOAD,2023-10-16 03:01:46,15.08843219,0.000149,53.2162,324.2481,88.7836,271.3326,0.00035456,5.36e-05,0.0,0 STARLINK-5241,1 54204U 22141AZ  23289.12623016  .00005360  00000-0  35456-3 0  9990,2 54204  53.2162 324.2481 0001490  88.7836 271.3326 15.08843219 54053,6917.871,95.437,540.766,538.705,0.0
54204.0,STARLINK-5241,PAYLOAD,2023-10-16 09:23:18,15.08863345,0.0001461,53.2169,323.0583,93.159,266.957,0.0013211,0.00020813,0.0,0 STARLINK-5241,1 54204U 22141AZ  23289.39118755  .00020813  00000-0  13211-2 0  9992,2 54204  53.2169 323.0583 0001461  93.1590 266.9570 15.08863345 54092,6917.809,95.436,540.685,538.663,0.0
54204.0,STARLINK-5241,PAYLOAD,2023-10-17 01:17:10,15.08845476,0.0001595,53.2166,320.0844,82.683,277.4343,0.00029741,4.449e-05,0.0,0 STARLINK-5241,1 54204U 22141AZ  23290.05359009  .00004449  00000-0  29741-3 0  9999,2 54204  53.2166 320.0844 0001595  82.6830 277.4343 15.08845476 54195,6917.864,95.437,540.832,538.625,0.0
54204.0,STARLINK-5241,PAYLOAD,2023-10-17 09:14:05,15.08847857,0.000151,53.2164,318.5966,78.0449,282.0712,0.00031673,4.757e-05,0.0,0 STARLINK-5241,1 54204U 22141AZ  23290.38478876  .00004757  00000-0  31673-3 0  9998,2 54204  53.2164 318.5966 0001510  78.0449 282.0712 15.08847857 54010,6917.856,95.437,540.766,538.677,0.0
54204.0,STARLINK-5241,PAYLOAD,2023-10-17 18:46:24,15.08845848,0.0001694,53.2166,316.8156,91.7344,268.3842,0.00025504,3.774e-05,0.0,0 STARLINK-5241,1 54204U 22141AZ  23290.78223133  .00003774  00000-0  25504-3 0  9990,2 54204  53.2166 316.8156 0001694  91.7344 268.3842 15.08845848 54304,6917.863,95.437,540.899,538.556,0.0
54204.0,STARLINK-5241,PAYLOAD,2023-10-17 23:32:33,15.08858715,0.0001555,53.2163,315.9221,95.1514,264.9655,0.00066036,0.00010243,0.0,0 STARLINK-5241,1 54204U 22141AZ  23290.98094728  .00010243  00000-0  66036-3 0  9992,2 54204  53.2163 315.9221 0001555  95.1514 264.9655 15.08858715 54106,6917.823,95.436,540.764,538.612,0.0
54204.0,STARLINK-5241,PAYLOAD,2023-10-18 10:40:15,15.08848852,0.0001564,53.2161,313.8405,85.5309,274.5861,0.00037597,5.702e-05,0.0,0 STARLINK-5241,1 54204U 22141AZ  23291.44462945  .00005702  00000-0  37597-3 0  9998,2 54204  53.2161 313.8405 0001564  85.5309 274.5861 15.08848852 54174,6917.853,95.437,540.8,538.636,0.0
54204.0,STARLINK-5241,PAYLOAD,2023-10-19 00:58:44,15.08850177,0.0001715,53.2168,311.1639,101.7031,258.4154,0.00042952,6.556e-05,0.0,0 STARLINK-5241,1 54204U 22141AZ  23292.04078915  .00006556  00000-0  42952-3 0  9994,2 54204  53.2168 311.1639 0001715 101.7031 258.4154 15.08850177 54496,6917.849,95.437,540.901,538.528,0.0
54204.0,STARLINK-5241,PAYLOAD,2023-10-19 08:55:39,15.08852513,0.0001703,53.2167,309.6778,92.3358,267.7829,0.00040825,6.217e-05,0.0,0 STARLINK-5241,1 54204U 22141AZ  23292.37198838  .00006217  00000-0  40825-3 0  9998,2 54204  53.2167 309.6778 0001703  92.3358 267.7829 15.08852513 54314,6917.842,95.437,540.885,538.529,0.0
54204.0,STARLINK-5241,PAYLOAD,2023-10-19 18:27:58,15.08844534,0.0001864,53.2172,307.8947,80.371,279.7492,0.00025696,3.804e-05,0.0,0 STARLINK-5241,1 54204U 22141AZ  23292.76943174  .00003804  00000-0  25696-3 0  9990,2 54204  53.2172 307.8947 0001864  80.3710 279.7492 15.08844534 54600,6917.867,95.437,541.021,538.442,0.0
54204.0,STARLINK-5241,PAYLOAD,2023-10-20 10:21:50,15.08838721,0.0001835,53.2177,304.9149,95.0107,265.1094,0.0001008,1.316e-05,0.0,0 STARLINK-5241,1 54204U 22141AZ  23293.43183444  .00001316  00000-0  10080-3 0  9998,2 54204  53.2177 304.9149 0001835  95.0107 265.1094 15.08838721 54707,6917.884,95.438,541.019,538.48,0.0
54204.0,STARLINK-5241,PAYLOAD,2023-10-21 07:01:51,15.08842867,0.0001749,53.2167,301.0531,98.1879,261.9312,0.00012957,1.775e-05,0.0,0 STARLINK-5241,1 54204U 22141AZ  23294.29295647  .00001775  00000-0  12957-3 0  9996,2 54204  53.2167 301.0531 0001749  98.1879 261.9312 15.08842867 54605,6917.872,95.437,540.947,538.527,0.0
